STARLINK-5514           
1 57248U 23094AG  23343.46791401  .00000845  00000+0  77599-4 0  9998
2 57248  43.0020 159.8849 0001183 277.3129  82.7579 15.02534788 23911
STARLINK-5517           
1 57249U 23094AH  23343.49565581 -.00000830  00000+0 -47489-4 0  9991
2 57249  43.0024 159.1960 0001239 275.8718  84.1983 15.01724199 23924
STARLINK-5488           
1 57250U 23094AJ  23342.85741756 -.00001151  00000+0 -70151-4 0  9991
2 57250  43.0025 163.0457 0000944 289.7658  70.3083 15.02534553 23642
STARLINK-5513           
1 57251U 23094AK  23342.86406297 -.00000524  00000+0 -23688-4 0  9997
2 57251  43.0027 163.0954 0001337 275.5859  84.4831 15.02543780 23649
STARLINK-5511           
1 57252U 23094AL  23343.51441140  .00001202  00000+0  10401-3 0  9997
2 57252  43.0008 159.3748 0001399 282.0475  78.0210 15.02540882 23924
STARLINK-5516           
1 57253U 23094AM  23342.86294223  .00000495  00000+0  51709-4 0  9993
2 57253  43.0023 163.0864 0001100 271.9363  88.1354 15.02552547 23827
STARLINK-5490           
1 57254U 23094AN  23342.91058279  .00004548  00000+0  35157-3 0  9990
2 57254  43.0013 162.5850 0001482 281.3090  78.7586 15.02528192 23833
STARLINK-5481           
1 57255U 23094AP  23342.91278150  .00001251  00000+0  10764-3 0  9998
2 57255  43.0014 162.6010 0001242 269.1828  90.8872 15.02538111 23656
STARLINK-5512           
1 57256U 23094AQ  23342.89282613  .00007209  00000+0  54809-3 0  9992
2 57256  43.0008 162.4701 0001174 263.4850  96.5859 15.02541123 23836
STARLINK-5503           
1 57257U 23094AR  23342.85296475 -.00000368  00000+0 -12153-4 0  9998
2 57257  43.0026 163.0123 0001368 268.8939  91.1747 15.02544979 24306
STARLINK-5476           
1 57258U 23094AS  23342.90722882  .00000454  00000+0  48657-4 0  9993
2 57258  43.0025 162.5586 0001185 268.8012  91.2694 15.02538832 23832
STARLINK-5505           
1 57259U 23094AT  23342.72092371  .00080051  00000+0  54928-3 0  9995
2 57259  42.9935 115.1712 0011600 330.0255  29.9949 15.73654431 24823
STARLINK-5026           
1 57260U 23094AU  23343.49886993 -.00000337  00000+0 -98443-5 0  9996
2 57260  43.0027 159.2581 0001176 268.4983  91.5725 15.02537527 23926
STARLINK-5485           
1 57261U 23094AV  23342.63551565 -.00000154  00000+0  36530-5 0  9991
2 57261  43.0034 176.9685 0001223 266.7492  93.3210 15.02540911 23701
STARLINK-5504           
1 57262U 23094AW  23342.90945655 -.00000695  00000+0 -36374-4 0  9995
2 57262  43.0024 162.5762 0001068 275.3203  84.7518 15.02538977 23659
STARLINK-5509           
1 57263U 23094AX  23342.89921345  .00006849  00000+0  52123-3 0  9998
2 57263  43.0021 175.5071 0001618 277.5119  82.5539 15.02559766 23507
STARLINK-5858           
1 57264U 23094AY  23342.89612910  .00000424  00000+0  46451-4 0  9995
2 57264  43.0027 162.4765 0001231 271.1778  88.8923 15.02538467 23658
STARLINK-5890           
1 57265U 23094AZ  23343.49219757  .00001204  00000+0  10416-3 0  9993
2 57265  43.0027 159.2081 0001080 263.2786  96.7934 15.02541805 23927
STARLINK-30198          
1 57290U 23096A   23343.16104525  .00001140  00000+0  99411-4 0  9995
2 57290  43.0051   7.5052 0000403 251.3632 108.7166 15.02531786 22939
STARLINK-30239          
1 57291U 23096B   23343.49009690  .00007092  00000+0  53946-3 0  9993
2 57291  43.0044   5.6743 0000935 268.1338  91.9397 15.02543780 22988
STARLINK-30210          
1 57292U 23096C   23342.48959919  .00001059  00000+0  93457-4 0  9999
2 57292  43.0044  11.0673 0001518 268.9459  91.1210 15.02537411 23815
STARLINK-30202          
1 57293U 23096D   23342.49680381  .00026149  00000+0  13566-2 0  9993
2 57293  43.0015   2.6536 0013044  85.4718 274.7619 15.15601979 24037
STARLINK-30235          
1 57294U 23096E   23342.48294236  .00001613  00000+0  13447-3 0  9991
2 57294  43.0048  11.0168 0001187 273.3889  86.6817 15.02539021 23933
STARLINK-30206          
1 57295U 23096F   23343.16436834  .00000936  00000+0  84384-4 0  9996
2 57295  43.0049   7.4949 0000624 269.2385  90.8385 15.02531107 22945
STARLINK-30238          
1 57296U 23096G   23343.14439299  .00001980  00000+0  16163-3 0  9992
2 57296  43.0045   7.3784 0000804 283.5325  76.5428 15.02536777 22937
STARLINK-30234          
1 57297U 23096H   23343.47344752  .00004565  00000+0  35264-3 0  9993
2 57297  43.0045   5.5482 0000931 259.2953 100.7785 15.02549939 22986
STARLINK-30241          
1 57298U 23096J   23343.58334491  .00041527  00000+0  31394-2 0  9993
2 57298  43.0033   4.4616 0001316 283.7117 151.4416 15.01701670 23013
STARLINK-30199          
1 57299U 23096K   23343.47011969  .00003096  00000+0  24411-3 0  9996
2 57299  43.0036   5.5227 0000903 268.4904  91.5835 15.02545715 23096
STARLINK-30236          
1 57300U 23096L   23343.13440570  .00001632  00000+0  13587-3 0  9992
2 57300  43.0049   7.3038 0000483 274.8225  85.2562 15.02535678 22940
STARLINK-30201          
1 57301U 23096M   23342.46629433  .00001918  00000+0  15700-3 0  9991
2 57301  43.0039  10.8900 0000325 253.8890 106.1917 15.02539353 23039
STARLINK-30233          
1 57302U 23096N   23343.46012807  .00002998  00000+0  23689-3 0  9998
2 57302  43.0023   5.4265 0001030 277.5929  82.4797 15.02543193 22990
STARLINK-30232          
1 57303U 23096P   23343.12441239  .00005175  00000+0  39781-3 0  9997
2 57303  43.0023   7.2391 0000641 236.9737 123.1044 15.02543586 22943
STARLINK-30211          
1 57304U 23096Q   23343.45346861  .00000034  00000+0  17573-4 0  9994
2 57304  43.0041   5.3879 0000678 271.4662  88.6103 15.02533805 22994
STARLINK-30177          
1 57305U 23096R   23342.51945280  .00007965  00000+0  60393-3 0  9998
2 57305  43.0039  10.4249 0000906 267.8182  92.2556 15.02543826 23044
STARLINK-30200          
1 57306U 23096S   23343.11442587  .00001228  00000+0  10594-3 0  9992
2 57306  43.0046   7.1476 0000530 253.5554 106.5230 15.02533606 22947
STARLINK-30209          
1 57307U 23096T   23343.11109246  .00003047  00000+0  24052-3 0  9990
2 57307  43.0031   7.1180 0001315 272.2731  87.7961 15.02542567 22948
STARLINK-30194          
1 57308U 23096U   23342.44298072  .00002362  00000+0  18992-3 0  9997
2 57308  43.0044  10.7136 0000717 262.1738  97.9023 15.02528368 23029
STARLINK-30163          
1 57309U 23096V   23342.43965711  .00001364  00000+0  11600-3 0  9998
2 57309  43.0049  10.6880 0000882 265.4659  94.6083 15.02537908 23021
STARLINK-30184          
1 57310U 23096W   23343.38421109  .00001513  00000+0  12703-3 0  9994
2 57310  43.0034 339.8774 0000958 277.1038  82.9696 15.02535333 23288
STARLINK-30175          
1 57311U 23096X   23343.10110570  .00002213  00000+0  17885-3 0  9996
2 57311  43.0043   7.0508 0000460 231.9624 128.1177 15.02539181 23041
STARLINK-6290           
1 57328U 23099A   23343.16270742  .00002211  00000+0  17868-3 0  9990
2 57328  43.0044  33.2602 0001029 284.1914  75.8814 15.02540964 23272
STARLINK-6138           
1 57329U 23099B   23342.48794035  .00003910  00000+0  30428-3 0  9995
2 57329  43.0053  36.7940 0001296 263.9233  96.1461 15.02542619 22431
STARLINK-6212           
1 57330U 23099C   23343.15937977  .00001162  00000+0  10106-3 0  9994
2 57330  43.0046  33.2353 0000881 288.5586  71.5160 15.02534592 23275
STARLINK-6234           
1 57331U 23099D   23343.15826919  .00001141  00000+0  99547-4 0  9992
2 57331  43.0051  33.2256 0000840 285.7251  74.3498 15.02535157 23012
STARLINK-5831           
1 57332U 23099E   23343.15604916  .00003886  00000+0  30251-3 0  9998
2 57332  43.0036  33.2096 0000967 288.4780  71.5957 15.02540004 23279
STARLINK-5585           
1 57333U 23099F   23343.15493766  .00004469  00000+0  34567-3 0  9990
2 57333  43.0043  33.2000 0001379 275.3465  84.7220 15.02541916 23166
STARLINK-5589           
1 57334U 23099G   23343.14938709  .00003029  00000+0  23919-3 0  9991
2 57334  43.0036  33.1560 0000982 293.4662  66.6077 15.02542738 23160
STARLINK-6316           
1 57335U 23099H   23342.53998793  .00001859  00000+0  15264-3 0  9996
2 57335  43.0038  36.3296 0000926 285.5055  74.5685 15.02539975 23184
STARLINK-6320           
1 57336U 23099J   23342.57365466  .00001079  00000+0  96850-4 0  9991
2 57336  43.0053  35.7028 0001319 270.9366  89.1325 15.01725933 22450
STARLINK-6322           
1 57337U 23099K   23343.14494662  .00003253  00000+0  25568-3 0  9990
2 57337  43.0042  33.1221 0001013 280.2640  79.8088 15.02543598 23275
STARLINK-6374           
1 57338U 23099L   23343.14161893  .00001285  00000+0  11017-3 0  9995
2 57338  43.0054  33.0966 0001085 281.1151  78.9569 15.02535090 23272
STARLINK-6332           
1 57339U 23099M   23343.14605793  .00003464  00000+0  27135-3 0  9997
2 57339  43.0045  33.1314 0001308 271.0507  89.0186 15.02540802 23277
STARLINK-6321           
1 57340U 23099N   23342.53110754  .00001397  00000+0  11845-3 0  9993
2 57340  43.0042  36.2570 0000871 288.8966  71.1782 15.02540492 23182
STARLINK-6377           
1 57341U 23099P   23342.53665740  .00001457  00000+0  12289-3 0  9994
2 57341  43.0035  36.2976 0001189 260.9200  99.1507 15.02540487 23145
STARLINK-6375           
1 57342U 23099Q   23343.17924002  .00001358  00000+0  11561-3 0  9997
2 57342  43.0051  32.5193 0001061 284.4443  75.6282 15.02534478 23280
STARLINK-6379           
1 57343U 23099R   23343.46401640  .00001118  00000+0  97821-4 0  9996
2 57343  43.0039  31.2169 0001084 279.2245  80.8474 15.02543335 23321
STARLINK-6380           
1 57344U 23099S   23343.45513821  .00001232  00000+0  10621-3 0  9990
2 57344  43.0026  31.1466 0001132 265.1540  94.9173 15.02538800 23326
STARLINK-6373           
1 57345U 23099T   23343.45847437  .00010757  00000+0  80960-3 0  9999
2 57345  43.0039  31.1746 0001144 278.1071  81.9641 15.02561884 23322
STARLINK-6359           
1 57346U 23099U   23343.17035824  .00002092  00000+0  16987-3 0  9999
2 57346  43.0039  32.4518 0000603 270.7489  89.3284 15.02540880 23287
